SL-16 R/B               
1 22285U 92093B   25312.82190229  .00000343  00000+0  19994-3 0  9992
2 22285  71.0206 257.9928 0003074 161.7495 198.3739 14.15420669696050
COSMOS 2228             
1 22286U 92094A   25312.79268891  .00003901  00000+0  34020-3 0  9991
2 22286  82.5190 353.0124 0017810 354.2102   5.8911 14.96497264757970
SL-16 R/B               
1 22566U 93016B   25312.49688970 -.00000005  00000+0  22064-4 0  9997
2 22566  71.0047 109.7197 0009326 159.5090 200.6409 14.15278355685028
COSMOS 2242             
1 22626U 93024A   25312.65743274  .00003491  00000+0  30919-3 0  9998
2 22626  82.5218  22.4118 0016216 357.7053   2.4091 14.95895232762290
SL-16 R/B               
1 22803U 93059B   25312.85265395  .00000170  00000+0  10802-3 0  9998
2 22803  70.9893 265.9422 0015923  27.4134 332.7826 14.17202795662412
ARIANE 40 R/B           
1 22830U 93061H   25312.60899583  .00000418  00000+0  16940-3 0  9990
2 22830  98.5118  18.7535 0009617 283.6788  76.3325 14.32768226676762
COSMOS 2278             
1 23087U 94023A   25312.72921437  .00000302  00000+0  18256-3 0  9995
2 23087  71.0530  68.1618 0010203 222.9761 137.0565 14.14333851627705
SL-16 R/B               
1 23088U 94023B   25312.47754199 -.00000123  00000+0 -38857-4 0  9990
2 23088  71.0003 325.4403 0001609 172.3725 187.7422 14.14993043628946
SL-16 R/B               
1 23343U 94074B   25312.60076103  .00000838  00000+0  11951-3 0  9993
2 23343  97.7248 343.2551 0005174 251.9331 264.0629 14.79229146669340
SL-16 R/B               
1 23405U 94077B   25312.85976300  .00000348  00000+0  20238-3 0  9994
2 23405  70.9822 246.6853 0003722 311.6144  48.4659 14.15541540599135
ARIANE 40+ R/B          
1 23561U 95021B   25312.63101934  .00000561  00000+0  19324-3 0  9997
2 23561  98.4690  20.6256 0007551 138.5516  21.2834 14.39654098601829
SL-16 R/B               
1 23705U 95058B   25312.79007765  .00000102  00000+0  76724-4 0  9990
2 23705  71.0218  74.0778 0014658 299.2643  60.7014 14.15475896550749
