CCSDS_OMM_VERS = 2.0
CREATION_DATE  = 
ORIGINATOR     = 

OBJECT_NAME    = SL-16 R/B
OBJECT_ID      = 1992-093B
CENTER_NAME    = EARTH
REF_FRAME      = TEME
TIME_SYSTEM    = UTC
MEAN_ELEMENT_THEORY = SGP/SGP4

EPOCH          = 2025-11-08T19:43:32.357856
MEAN_MOTION    = 14.15420669
ECCENTRICITY   = .0003074
INCLINATION    = 71.0206
RA_OF_ASC_NODE = 257.9928
ARG_OF_PERICENTER = 161.7495
MEAN_ANOMALY   = 198.3739

EPHEMERIS_TYPE = 0
CLASSIFICATION_TYPE = U
NORAD_CAT_ID   = 22285
ELEMENT_SET_NO = 999
REV_AT_EPOCH   = 69605
BSTAR          = .19994E-3
MEAN_MOTION_DOT = .343E-5
MEAN_MOTION_DDOT = 0

CCSDS_OMM_VERS = 2.0
CREATION_DATE  = 
ORIGINATOR     = 

OBJECT_NAME    = COSMOS 2228
OBJECT_ID      = 1992-094A
CENTER_NAME    = EARTH
REF_FRAME      = TEME
TIME_SYSTEM    = UTC
MEAN_ELEMENT_THEORY = SGP/SGP4

EPOCH          = 2025-11-08T19:01:28.321824
MEAN_MOTION    = 14.96497264
ECCENTRICITY   = .001781
INCLINATION    = 82.5190
RA_OF_ASC_NODE = 353.0124
ARG_OF_PERICENTER = 354.2102
MEAN_ANOMALY   = 5.8911

EPHEMERIS_TYPE = 0
CLASSIFICATION_TYPE = U
NORAD_CAT_ID   = 22286
ELEMENT_SET_NO = 999
REV_AT_EPOCH   = 75797
BSTAR          = .3402E-3
MEAN_MOTION_DOT = .3901E-4
MEAN_MOTION_DDOT = 0

CCSDS_OMM_VERS = 2.0
CREATION_DATE  = 
ORIGINATOR     = 

OBJECT_NAME    = SL-16 R/B
OBJECT_ID      = 1993-016B
CENTER_NAME    = EARTH
REF_FRAME      = TEME
TIME_SYSTEM    = UTC
MEAN_ELEMENT_THEORY = SGP/SGP4

EPOCH          = 2025-11-08T11:55:31.270080
MEAN_MOTION    = 14.15278355
ECCENTRICITY   = .0009326
INCLINATION    = 71.0047
RA_OF_ASC_NODE = 109.7197
ARG_OF_PERICENTER = 159.5090
MEAN_ANOMALY   = 200.6409

EPHEMERIS_TYPE = 0
CLASSIFICATION_TYPE = U
NORAD_CAT_ID   = 22566
ELEMENT_SET_NO = 999
REV_AT_EPOCH   = 68502
BSTAR          = .22064E-4
MEAN_MOTION_DOT = -.5E-7
MEAN_MOTION_DDOT = 0

CCSDS_OMM_VERS = 2.0
CREATION_DATE  = 
ORIGINATOR     = 

OBJECT_NAME    = COSMOS 2242
OBJECT_ID      = 1993-024A
CENTER_NAME    = EARTH
REF_FRAME      = TEME
TIME_SYSTEM    = UTC
MEAN_ELEMENT_THEORY = SGP/SGP4

EPOCH          = 2025-11-08T15:46:42.188736
MEAN_MOTION    = 14.95895232
ECCENTRICITY   = .0016216
INCLINATION    = 82.5218
RA_OF_ASC_NODE = 22.4118
ARG_OF_PERICENTER = 357.7053
MEAN_ANOMALY   = 2.4091

EPHEMERIS_TYPE = 0
CLASSIFICATION_TYPE = U
NORAD_CAT_ID   = 22626
ELEMENT_SET_NO = 999
REV_AT_EPOCH   = 76229
BSTAR          = .30919E-3
MEAN_MOTION_DOT = .3491E-4
MEAN_MOTION_DDOT = 0

CCSDS_OMM_VERS = 2.0
CREATION_DATE  = 
ORIGINATOR     = 

OBJECT_NAME    = SL-16 R/B
OBJECT_ID      = 1993-059B
CENTER_NAME    = EARTH
REF_FRAME      = TEME
TIME_SYSTEM    = UTC
MEAN_ELEMENT_THEORY = SGP/SGP4

EPOCH          = 2025-11-08T20:27:49.301280
MEAN_MOTION    = 14.17202795
ECCENTRICITY   = .0015923
INCLINATION    = 70.9893
RA_OF_ASC_NODE = 265.9422
ARG_OF_PERICENTER = 27.4134
MEAN_ANOMALY   = 332.7826

EPHEMERIS_TYPE = 0
CLASSIFICATION_TYPE = U
NORAD_CAT_ID   = 22803
ELEMENT_SET_NO = 999
REV_AT_EPOCH   = 66241
BSTAR          = .10802E-3
MEAN_MOTION_DOT = .17E-5
MEAN_MOTION_DDOT = 0

CCSDS_OMM_VERS = 2.0
CREATION_DATE  = 
ORIGINATOR     = 

OBJECT_NAME    = ARIANE 40 R/B
OBJECT_ID      = 1993-061H
CENTER_NAME    = EARTH
REF_FRAME      = TEME
TIME_SYSTEM    = UTC
MEAN_ELEMENT_THEORY = SGP/SGP4

EPOCH          = 2025-11-08T14:36:57.239712
MEAN_MOTION    = 14.32768226
ECCENTRICITY   = .0009617
INCLINATION    = 98.5118
RA_OF_ASC_NODE = 18.7535
ARG_OF_PERICENTER = 283.6788
MEAN_ANOMALY   = 76.3325

EPHEMERIS_TYPE = 0
CLASSIFICATION_TYPE = U
NORAD_CAT_ID   = 22830
ELEMENT_SET_NO = 999
REV_AT_EPOCH   = 67676
BSTAR          = .1694E-3
MEAN_MOTION_DOT = .418E-5
MEAN_MOTION_DDOT = 0

CCSDS_OMM_VERS = 2.0
CREATION_DATE  = 
ORIGINATOR     = 

OBJECT_NAME    = COSMOS 2278
OBJECT_ID      = 1994-023A
CENTER_NAME    = EARTH
REF_FRAME      = TEME
TIME_SYSTEM    = UTC
MEAN_ELEMENT_THEORY = SGP/SGP4

EPOCH          = 2025-11-08T17:30:04.121568
MEAN_MOTION    = 14.14333851
ECCENTRICITY   = .0010203
INCLINATION    = 71.0530
RA_OF_ASC_NODE = 68.1618
ARG_OF_PERICENTER = 222.9761
MEAN_ANOMALY   = 137.0565

EPHEMERIS_TYPE = 0
CLASSIFICATION_TYPE = U
NORAD_CAT_ID   = 23087
ELEMENT_SET_NO = 999
REV_AT_EPOCH   = 62770
BSTAR          = .18256E-3
MEAN_MOTION_DOT = .302E-5
MEAN_MOTION_DDOT = 0

CCSDS_OMM_VERS = 2.0
CREATION_DATE  = 
ORIGINATOR     = 

OBJECT_NAME    = SL-16 R/B
OBJECT_ID      = 1994-023B
CENTER_NAME    = EARTH
REF_FRAME      = TEME
TIME_SYSTEM    = UTC
MEAN_ELEMENT_THEORY = SGP/SGP4

EPOCH          = 2025-11-08T11:27:39.627936
MEAN_MOTION    = 14.14993043
ECCENTRICITY   = .0001609
INCLINATION    = 71.0003
RA_OF_ASC_NODE = 325.4403
ARG_OF_PERICENTER = 172.3725
MEAN_ANOMALY   = 187.7422

EPHEMERIS_TYPE = 0
CLASSIFICATION_TYPE = U
NORAD_CAT_ID   = 23088
ELEMENT_SET_NO = 999
REV_AT_EPOCH   = 62894
BSTAR          = -.38857E-4
MEAN_MOTION_DOT = -.123E-5
MEAN_MOTION_DDOT = 0

CCSDS_OMM_VERS = 2.0
CREATION_DATE  = 
ORIGINATOR     = 

OBJECT_NAME    = SL-16 R/B
OBJECT_ID      = 1994-074B
CENTER_NAME    = EARTH
REF_FRAME      = TEME
TIME_SYSTEM    = UTC
MEAN_ELEMENT_THEORY = SGP/SGP4

EPOCH          = 2025-11-08T14:25:05.752992
MEAN_MOTION    = 14.79229146
ECCENTRICITY   = .0005174
INCLINATION    = 97.7248
RA_OF_ASC_NODE = 343.2551
ARG_OF_PERICENTER = 251.9331
MEAN_ANOMALY   = 264.0629

EPHEMERIS_TYPE = 0
CLASSIFICATION_TYPE = U
NORAD_CAT_ID   = 23343
ELEMENT_SET_NO = 999
REV_AT_EPOCH   = 66934
BSTAR          = .11951E-3
MEAN_MOTION_DOT = .838E-5
MEAN_MOTION_DDOT = 0

CCSDS_OMM_VERS = 2.0
CREATION_DATE  = 
ORIGINATOR     = 

OBJECT_NAME    = SL-16 R/B
OBJECT_ID      = 1994-077B
CENTER_NAME    = EARTH
REF_FRAME      = TEME
TIME_SYSTEM    = UTC
MEAN_ELEMENT_THEORY = SGP/SGP4

EPOCH          = 2025-11-08T20:38:03.523200
MEAN_MOTION    = 14.15541540
ECCENTRICITY   = .0003722
INCLINATION    = 70.9822
RA_OF_ASC_NODE = 246.6853
ARG_OF_PERICENTER = 311.6144
MEAN_ANOMALY   = 48.4659

EPHEMERIS_TYPE = 0
CLASSIFICATION_TYPE = U
NORAD_CAT_ID   = 23405
ELEMENT_SET_NO = 999
REV_AT_EPOCH   = 59913
BSTAR          = .20238E-3
MEAN_MOTION_DOT = .348E-5
MEAN_MOTION_DDOT = 0

CCSDS_OMM_VERS = 2.0
CREATION_DATE  = 
ORIGINATOR     = 

OBJECT_NAME    = ARIANE 40+ R/B
OBJECT_ID      = 1995-021B
CENTER_NAME    = EARTH
REF_FRAME      = TEME
TIME_SYSTEM    = UTC
MEAN_ELEMENT_THEORY = SGP/SGP4

EPOCH          = 2025-11-08T15:08:40.070976
MEAN_MOTION    = 14.39654098
ECCENTRICITY   = .0007551
INCLINATION    = 98.4690
RA_OF_ASC_NODE = 20.6256
ARG_OF_PERICENTER = 138.5516
MEAN_ANOMALY   = 21.2834

EPHEMERIS_TYPE = 0
CLASSIFICATION_TYPE = U
NORAD_CAT_ID   = 23561
ELEMENT_SET_NO = 999
REV_AT_EPOCH   = 60182
BSTAR          = .19324E-3
MEAN_MOTION_DOT = .561E-5
MEAN_MOTION_DDOT = 0

CCSDS_OMM_VERS = 2.0
CREATION_DATE  = 
ORIGINATOR     = 

OBJECT_NAME    = SL-16 R/B
OBJECT_ID      = 1995-058B
CENTER_NAME    = EARTH
REF_FRAME      = TEME
TIME_SYSTEM    = UTC
MEAN_ELEMENT_THEORY = SGP/SGP4

EPOCH          = 2025-11-08T18:57:42.708960
MEAN_MOTION    = 14.15475896
ECCENTRICITY   = .0014658
INCLINATION    = 71.0218
RA_OF_ASC_NODE = 74.0778
ARG_OF_PERICENTER = 299.2643
MEAN_ANOMALY   = 60.7014

EPHEMERIS_TYPE = 0
CLASSIFICATION_TYPE = U
NORAD_CAT_ID   = 23705
ELEMENT_SET_NO = 999
REV_AT_EPOCH   = 55074
BSTAR          = .76724E-4
MEAN_MOTION_DOT = .102E-5
MEAN_MOTION_DDOT = 0

